BEIDOU-2 IGSO-1 (C06)   
1 36828U 10036A   23169.41438236 -.00000061  00000+0  00000+0 0  9995
2 36828  54.2351 172.8803 0037968 192.5315 158.1404  1.00291781 47224
BEIDOU-2 G4 (C04)       
1 37210U 10057A   23169.53845334 -.00000108  00000+0  00000+0 0  9990
2 37210   1.0154  56.3904 0002535 149.7616  54.2449  1.00272176 46310
BEIDOU-2 IGSO-2 (C07)   
1 37256U 10068A   23168.65039028 -.00000214  00000+0  00000+0 0  9997
2 37256  49.5521 285.2592 0027981 201.3482 118.9264  1.00251913 45801
BEIDOU-2 IGSO-3 (C08)   
1 37384U 11013A   23169.52004031 -.00000193  00000+0  00000+0 0  9999
2 37384  60.8218  50.6530 0022732 177.5502 330.6772  1.00259167 44685
BEIDOU-2 IGSO-4 (C09)   
1 37763U 11038A   23168.99910500  .00000019  00000+0  00000+0 0  9990
2 37763  54.5078 175.4113 0111739 228.5615 314.8833  1.00290060 43667
BEIDOU-2 IGSO-5 (C10)   
1 37948U 11073A   23167.95258792 -.00000173  00000+0  00000+0 0  9999
2 37948  49.6769 284.9286 0092391 218.7475 198.1601  1.00291076 42144
BEIDOU-2 G5 (C05)       
1 38091U 12008A   23169.29841183  .00000061  00000+0  00000+0 0  9994
2 38091   1.5326  66.7952 0002610 282.6939  82.8484  1.00270915 41399
BEIDOU-2 M3 (C11)       
1 38250U 12018A   23166.65490731 -.00000105  00000+0  00000+0 0  9998
2 38250  56.5544 341.5453 0020504 257.3877 102.3843  1.86231238 75506
BEIDOU-2 M4 (C12)       
1 38251U 12018B   23169.27157803 -.00000107  00000+0  00000+0 0  9992
2 38251  56.4651 340.7577 0011445 258.7962 101.0707  1.86234314 75555
BEIDOU-2 M6 (C14)       
1 38775U 12050B   23168.98151259 -.00000056  00000+0  00000+0 0  9998
2 38775  55.6366  99.3973 0014356 331.0722  28.8165  1.86231306 73268
BEIDOU-2 G6 (C02)       
1 38953U 12059A   23169.08035414 -.00000173  00000+0  00000+0 0  9991
2 38953   1.8369  82.3950 0010205 317.6362 339.0043  1.00272640 38926
BEIDOU-3S IGSO-1S (C31) 
1 40549U 15019A   23167.81234141 -.00000211  00000+0  00000+0 0  9994
2 40549  51.2452 308.5014 0039147 191.8642 153.6610  1.00274306 30074
BEIDOU-3S M2S (C57)     
1 40748U 15037A   23164.03821221 -.00000094  00000+0  00000+0 0  9996
2 40748  55.7104 339.5770 0004401  51.2347 308.8099  1.86233615 53631
BEIDOU-3S M1S (C58)     
1 40749U 15037B   23167.06018497 -.00000108  00000+0  00000+0 0  9992
2 40749  55.7122 339.4660 0003531   0.4450 359.5531  1.86233012 53694
BEIDOU-3S IGSO-2S (C56) 
1 40938U 15053A   23167.18806052 -.00000145  00000+0  00000+0 0  9996
2 40938  50.9316 271.6751 0048399 194.0763 319.8500  1.00256003 28353
BEIDOU-2 IGSO-6 (C13)   
1 41434U 16021A   23167.54759303 -.00000167  00000+0  00000+0 0  9994
2 41434  58.6323  49.0808 0045278 223.4880 281.3020  1.00256098 26484
BEIDOU-2 G7 (C03)       
1 41586U 16037A   23169.39493705 -.00000351  00000+0  00000+0 0  9990
2 41586   1.6935  67.1130 0008315 350.9172 101.0686  1.00273723 25815
BEIDOU-3 M1 (C19)       
1 43001U 17069A   23169.28491648 -.00000053  00000+0  00000+0 0  9991
2 43001  55.7886  99.4354 0011137 301.7077  58.1536  1.86231758 38214
BEIDOU-3 M2 (C20)       
1 43002U 17069B   23169.22145456 -.00000054  00000+0  00000+0 0  9990
2 43002  55.7879  99.4739 0009330 322.3263  37.5778  1.86231230 38205
BEIDOU-3 M7 (C27)       
1 43107U 18003A   23169.50975645 -.00000109  00000+0  00000+0 0  9998
2 43107  55.1630 340.1480 0005258  69.8407 290.2110  1.86232606 36964
BEIDOU-3 M8 (C28)       
1 43108U 18003B   23168.91026192 -.00000110  00000+0  00000+0 0  9999
2 43108  55.1563 340.1559 0002164 246.3083 113.6644  1.86231070 36966
BEIDOU-3 M4 (C22)       
1 43207U 18018A   23168.27899778 -.00000060  00000+0  00000+0 0  9996
2 43207  55.7468  99.5706 0006885 344.4952  15.4490  1.86231649 36335
BEIDOU-3 M3 (C21)       
1 43208U 18018B   23168.88255103 -.00000056  00000+0  00000+0 0  9997
2 43208  55.7466  99.5549 0009117 312.8826  47.0086  1.86231560 36344
BEIDOU-3 M9 (C29)       
1 43245U 18029A   23168.56894858 -.00000110  00000+0  00000+0 0  9992
2 43245  55.0608 337.9206 0000815 102.4749 257.5272  1.86232838 35497
BEIDOU-3 M10 (C30)      
1 43246U 18029B   23167.96216101 -.00000111  00000+0  00000+0 0  9996
2 43246  55.0586 337.9705 0003949  19.6253 340.3839  1.86232968 35468
BEIDOU-2 IGSO-7 (C16)   
1 43539U 18057A   23168.42965841 -.00000053  00000+0  00000+0 0  9991
2 43539  55.1070 172.5228 0061756 231.6515 126.4330  1.00255087 18151
BEIDOU-3 M5 (C23)       
1 43581U 18062A   23169.25680935  .00000058  00000+0  00000+0 0  9998
2 43581  54.1885 219.5778 0005203 268.7769  91.2562  1.86232017 33245
BEIDOU-3 M6 (C24)       
1 43582U 18062B   23169.12177862  .00000059  00000+0  00000+0 0  9996
2 43582  54.1882 219.5719 0004032 351.8429   8.2434  1.86229625 33241
BEIDOU-3 M12 (C26)      
1 43602U 18067A   23169.05887593  .00000061  00000+0  00000+0 0  9998
2 43602  54.2747 218.2221 0006484  10.8314 349.2750  1.86231736 32724
BEIDOU-3 M11 (C25)      
1 43603U 18067B   23169.19267137  .00000060  00000+0  00000+0 0  9999
2 43603  54.2718 218.1835 0003654 353.2010   6.8863  1.86231655 32750
BEIDOU-3 M13 (C32)      
1 43622U 18072A   23169.15071666 -.00000055  00000+0  00000+0 0  9997
2 43622  55.7164  99.0845 0007684 299.8454  60.0480  1.86231748 32269
BEIDOU-3 M14 (C33)      
1 43623U 18072B   23169.01617370 -.00000056  00000+0  00000+0 0  9992
2 43623  55.7181  99.0816 0005845 323.7846  36.1448  1.86231763 32261
BEIDOU-3 M16 (C35)      
1 43647U 18078A   23167.56585257 -.00000111  00000+0  00000+0 0  9992
2 43647  54.9577 338.0843 0007356  19.2563 340.7663  1.86227373 31731
BEIDOU-3 M15 (C34)      
1 43648U 18078B   23167.72685600 -.00000111  00000+0  00000+0 0  9994
2 43648  54.9485 338.0805 0004727  33.9170 345.0451  1.86232179 31760
BEIDOU-3 G1 (C59)       
1 43683U 18085A   23169.50605112 -.00000274  00000+0  00000+0 0  9999
2 43683   1.3526 130.0867 0004146 319.3823 139.2252  1.00274145 17086
BEIDOU-3 M17 (C36)      
1 43706U 18093A   23167.84739194  .00000066  00000+0  00000+0 0  9995
2 43706  54.2710 219.5373 0010279 274.3081  85.6666  1.86232081 31120
BEIDOU-3 M18 (C37)      
1 43707U 18093B   23169.32326822  .00000057  00000+0  00000+0 0  9991
2 43707  54.2716 219.4785 0008176 298.3744  61.6359  1.86229889 31145
BEIDOU-3 IGSO-1 (C38)   
1 44204U 19023A   23169.39529552 -.00000232  00000+0  00000+0 0  9996
2 44204  57.1008  49.0653 0018441 200.7781 275.1270  1.00252767 15366
BEIDOU-2 G8 (C01)       
1 44231U 19027A   23169.52958318 -.00000244  00000+0  00000+0 0  9994
2 44231   1.7647  81.2698 0004650 126.2030  34.1617  1.00275081 15107
BEIDOU-3 IGSO-2 (C39)   
1 44337U 19035A   23167.95006444 -.00000061  00000+0  00000+0 0  9996
2 44337  55.1497 168.4898 0033572 198.9555 355.4775  1.00299723 14677
BEIDOU-3 M24 (C46)      
1 44542U 19061A   23168.85862967  .00000061  00000+0  00000+0 0  9992
2 44542  54.4979 219.7173 0007619 334.7948  25.2611  1.86231299 25397
BEIDOU-3 M23 (C45)      
1 44543U 19061B   23168.44809240  .00000064  00000+0  00000+0 0  9996
2 44543  54.4964 219.7003 0005251 314.7622  41.8331  1.86231726 25388
BEIDOU-3 IGSO-3 (C40)   
1 44709U 19073A   23168.75187907 -.00000214  00000+0  00000+0 0  9994
2 44709  56.6665 292.5761 0032467 179.6093 180.3462  1.00251724 13470
BEIDOU-3 M22 (C44)      
1 44793U 19078A   23167.09274788 -.00000110  00000+0  00000+0 0  9997
2 44793  54.8065 338.0775 0006424  27.8785 332.1518  1.86232263 24229
BEIDOU-3 M21 (C43)      
1 44794U 19078B   23167.26522032 -.00000110  00000+0  00000+0 0  9995
2 44794  54.7798 338.0549 0004296  27.9305   0.0479  1.86232599 24224
BEIDOU-3 M19 (C41)      
1 44864U 19090A   23169.28273841 -.00000054  00000+0  00000+0 0  9999
2 44864  55.6509  99.2708 0018048 279.3451 215.2541  1.86231977 23846
BEIDOU-3 M20 (C42)      
1 44865U 19090B   23169.14141170 -.00000055  00000+0  00000+0 0  9995
2 44865  55.6527  99.3080 0016266 292.6306 197.0169  1.86231901 23826
BEIDOU-3 G2 (C60)       
1 45344U 20017A   23169.18799444 -.00000139  00000+0  00000+0 0  9999
2 45344   2.0122  12.1013 0002818 104.7012 297.0843  1.00272244 12289
BEIDOU-3 G3 (C61)       
1 45807U 20040A   23169.52271418 -.00000349  00000+0  00000+0 0  9996
2 45807   0.7057 330.0338 0006983 317.3410 277.7735  1.00277343 11096
BEIDOU-3 G4             
1 56564U 23066A   23169.53850302 -.00000104  00000+0  00000+0 0  9994
2 56564   3.0346 289.2529 0006715 189.0191 142.1259  1.00272248   414
